[{"OBJECT_NAME":"CELESTIS-02 & TAURUS R/B","OBJECT_ID":"1998-007D","EPOCH":"2026-04-05T19:49:22.257120","MEAN_MOTION":14.2246252,"ECCENTRICITY":0.006377,"INCLINATION":108.0035,"RA_OF_ASC_NODE":186.2352,"ARG_OF_PERICENTER":256.9031,"MEAN_ANOMALY":209.1154,"EPHEMERIS_TYPE":0,"CLASSIFICATION_TYPE":"U","NORAD_CAT_ID":25160,"ELEMENT_SET_NO":999,"REV_AT_EPOCH":46022,"BSTAR":9.7931e-5,"MEAN_MOTION_DOT":9.3e-7,"MEAN_MOTION_DDOT":0}]
