CELESTIS-02 & TAURUS R/B
1 25160U 98007D   26095.82595205  .00000093  00000+0  97931-4 0  9990
2 25160 108.0035 186.2352 0063770 256.9031 209.1154 14.22462520460223
